{"type": "FeatureCollection", "features": [ {"type": "Feature", "properties": {"norad_id": 43623, "name": "BEIDOU-3 M14 (C33)", "group": "beidou", "lat": -53.669464648995316, "lon": -46.716652770009745, "alt_km": 21532.562706260862, "timestamp": "2025-12-06T11:28:11.328146+00:00", "meta": {"OBJECT_NAME": "BEIDOU-3 M14 (C33)", "OBJECT_ID": "2018-072B", "EPOCH": "2025-12-02T08:07:43.843296", "MEAN_MOTION": 1.86230716, "ECCENTRICITY": 0.00030503, "INCLINATION": 56.4518, "RA_OF_ASC_NODE": 69.1588, "ARG_OF_PERICENTER": 335.8375, "MEAN_ANOMALY": 24.1509, "EPHEMERIS_TYPE": 0, "CLASSIFICATION_TYPE": "U", "NORAD_CAT_ID": 43623, "ELEMENT_SET_NO": 999, "REV_AT_EPOCH": 4898, "BSTAR": 0, "MEAN_MOTION_DOT": -4.6e-07, "MEAN_MOTION_DDOT": 0}, "tle": {"line1": "1 43623U 18072B   25336.33870189 -.00000046  00000+0  00000+0 0  9993", "line2": "2 43623  56.4518  69.1588 0003050 335.8375  24.1509  1.86230716 48982"}}, "geometry": {"type": "Point", "coordinates": [-46.716652770009745, -53.669464648995316]}}, {"type": "Feature", "properties": {"norad_id": 43647, "name": "BEIDOU-3 M16 (C35)", "group": "beidou", "lat": 24.431231680073427, "lon": 107.64136234315556, "alt_km": 21537.733056507874, "timestamp": "2025-12-06T11:28:11.328157+00:00", "meta": {"OBJECT_NAME": "BEIDOU-3 M16 (C35)", "OBJECT_ID": "2018-078A", "EPOCH": "2025-12-04T15:28:02.326368", "MEAN_MOTION": 1.8623209, "ECCENTRICITY": 0.00070171, "INCLINATION": 54.2696, "RA_OF_ASC_NODE": 306.8042, "ARG_OF_PERICENTER": 18.5633, "MEAN_ANOMALY": 341.4446, "EPHEMERIS_TYPE": 0, "CLASSIFICATION_TYPE": "U", "NORAD_CAT_ID": 43647, "ELEMENT_SET_NO": 999, "REV_AT_EPOCH": 4853, "BSTAR": 0, "MEAN_MOTION_DOT": -6.9e-07, "MEAN_MOTION_DDOT": 0}, "tle": {"line1": "1 43647U 18078A   25338.64447137 -.00000069  00000+0  00000+0 0  9999", "line2": "2 43647  54.2696 306.8042 0007017  18.5633 341.4446  1.86232090 48539"}}, "geometry": {"type": "Point", "coordinates": [107.64136234315556, 24.431231680073427]}}, {"type": "Feature", "properties": {"norad_id": 43648, "name": "BEIDOU-3 M15 (C34)", "group": "beidou", "lat": 46.14102360791134, "lon": -4.797458189353339, "alt_km": 21515.14752470324, "timestamp": "2025-12-06T11:28:11.328168+00:00", "meta": {"OBJECT_NAME": "BEIDOU-3 M15 (C34)", "OBJECT_ID": "2018-078B", "EPOCH": "2025-12-05T07:27:18.667008", "MEAN_MOTION": 1.86231965, "ECCENTRICITY": 0.00036856, "INCLINATION": 54.2646, "RA_OF_ASC_NODE": 306.7819, "ARG_OF_PERICENTER": 17.7509, "MEAN_ANOMALY": 342.2442, "EPHEMERIS_TYPE": 0, "CLASSIFICATION_TYPE": "U", "NORAD_CAT_ID": 43648, "ELEMENT_SET_NO": 999, "REV_AT_EPOCH": 4856, "BSTAR": 0, "MEAN_MOTION_DOT": -6.9e-07, "MEAN_MOTION_DDOT": 0}, "tle": {"line1": "1 43648U 18078B   25339.31063272 -.00000069  00000+0  00000+0 0  9999", "line2": "2 43648  54.2646 306.7819 0003685  17.7509 342.2442  1.86231965 48564"}}, "geometry": {"type": "Point", "coordinates": [-4.797458189353339, 46.14102360791134]}}, {"type": "Feature", "properties": {"norad_id": 43683, "name": "BEIDOU-3 G1 (C59)", "group": "beidou", "lat": -2.4885309196310055, "lon": 27.617438635866485, "alt_km": 35792.41441751663, "timestamp": "2025-12-06T11:28:11.328180+00:00", "meta": {"OBJECT_NAME": "BEIDOU-3 G1 (C59)", "OBJECT_ID": "2018-085A", "EPOCH": "2025-12-05T21:12:36.853632", "MEAN_MOTION": 1.00272826, "ECCENTRICITY": 0.00019241, "INCLINATION": 2.5895, "RA_OF_ASC_NODE": 103.1577, "ARG_OF_PERICENTER": 64.9627, "MEAN_ANOMALY": 5.0228, "EPHEMERIS_TYPE": 0, "CLASSIFICATION_TYPE": "U", "NORAD_CAT_ID": 43683, "ELEMENT_SET_NO": 999, "REV_AT_EPOCH": 2612, "BSTAR": 0, "MEAN_MOTION_DOT": -2.69e-06, "MEAN_MOTION_DDOT": 0}, "tle": {"line1": "1 43683U 18085A   25339.88375988 -.00000269  00000+0  00000+0 0  9990", "line2": "2 43683   2.5895 103.1577 0001924  64.9627   5.0228  1.00272826 26125"}}, "geometry": {"type": "Point", "coordinates": [27.617438635866485, -2.4885309196310055]}}, {"type": "Feature", "properties": {"norad_id": 43706, "name": "BEIDOU-3 M17 (C36)", "group": "beidou", "lat": -34.04740009976381, "lon": 159.61488109022997, "alt_km": 21515.11026590063, "timestamp": "2025-12-06T11:28:11.328191+00:00", "meta": {"OBJECT_NAME": "BEIDOU-3 M17 (C36)", "OBJECT_ID": "2018-093A", "EPOCH": "2025-12-03T14:10:37.280064", "MEAN_MOTION": 1.86228161, "ECCENTRICITY": 0.00063465, "INCLINATION": 54.1727, "RA_OF_ASC_NODE": 188.9327, "ARG_OF_PERICENTER": 306.3477, "MEAN_ANOMALY": 234.3147, "EPHEMERIS_TYPE": 0, "CLASSIFICATION_TYPE": "U", "NORAD_CAT_ID": 43706, "ELEMENT_SET_NO": 999, "REV_AT_EPOCH": 4789, "BSTAR": 0, "MEAN_MOTION_DOT": 1.14e-06, "MEAN_MOTION_DDOT": 0}, "tle": {"line1": "1 43706U 18093A   25337.59070926  .00000114  00000+0  00000+0 0  9993", "line2": "2 43706  54.1727 188.9327 0006346 306.3477 234.3147  1.86228161 47892"}}, "geometry": {"type": "Point", "coordinates": [159.61488109022997, -34.04740009976381]}}, {"type": "Feature", "properties": {"norad_id": 43707, "name": "BEIDOU-3 M18 (C37)", "group": "beidou", "lat": 37.9088747201113, "lon": -136.9209705175247, "alt_km": 21514.395528830482, "timestamp": "2025-12-06T11:28:11.328202+00:00", "meta": {"OBJECT_NAME": "BEIDOU-3 M18 (C37)", "OBJECT_ID": "2018-093B", "EPOCH": "2025-12-04T06:09:34.457184", "MEAN_MOTION": 1.86226429, "ECCENTRICITY": 0.0006367, "INCLINATION": 54.1734, "RA_OF_ASC_NODE": 188.9019, "ARG_OF_PERICENTER": 351.3735, "MEAN_ANOMALY": 8.7081, "EPHEMERIS_TYPE": 0, "CLASSIFICATION_TYPE": "U", "NORAD_CAT_ID": 43707, "ELEMENT_SET_NO": 999, "REV_AT_EPOCH": 4790, "BSTAR": 0, "MEAN_MOTION_DOT": 1.06e-06, "MEAN_MOTION_DDOT": 0}, "tle": {"line1": "1 43707U 18093B   25338.25664881  .00000106  00000+0  00000+0 0  9998", "line2": "2 43707  54.1734 188.9019 0006367 351.3735   8.7081  1.86226429 47906"}}, "geometry": {"type": "Point", "coordinates": [-136.9209705175247, 37.9088747201113]}}, {"type": "Feature", "properties": {"norad_id": 44204, "name": "BEIDOU-3 IGSO-1 (C38)", "group": "beidou", "lat": -31.713895011511923, "lon": 17.38115507854786, "alt_km": 35817.9334466336, "timestamp": "2025-12-06T11:28:11.328213+00:00", "meta": {"OBJECT_NAME": "BEIDOU-3 IGSO-1 (C38)", "OBJECT_ID": "2019-023A", "EPOCH": "2025-11-19T14:15:02.708640", "MEAN_MOTION": 1.00252177, "ECCENTRICITY": 0.0026966, "INCLINATION": 58.4003, "RA_OF_ASC_NODE": 39.8168, "ARG_OF_PERICENTER": 221.2202, "MEAN_ANOMALY": 126.9723, "EPHEMERIS_TYPE": 0, "CLASSIFICATION_TYPE": "U", "NORAD_CAT_ID": 44204, "ELEMENT_SET_NO": 999, "REV_AT_EPOCH": 510, "BSTAR": 0, "MEAN_MOTION_DOT": -2.26e-06, "MEAN_MOTION_DDOT": 0}, "tle": {"line1": "1 44204U 19023A   25323.59378135 -.00000226  00000+0  00000+0 0  9994", "line2": "2 44204  58.4003  39.8168 0026966 221.2202 126.9723  1.00252177  5102"}}, "geometry": {"type": "Point", "coordinates": [17.38115507854786, -31.713895011511923]}}, {"type": "Feature", "properties": {"norad_id": 44231, "name": "BEIDOU-2 G8 (C01)", "group": "beidou", "lat": -1.0900448149924384, "lon": 32.20961560013123, "alt_km": 35770.61778611004, "timestamp": "2025-12-06T11:28:11.328228+00:00", "meta": {"OBJECT_NAME": "BEIDOU-2 G8 (C01)", "OBJECT_ID": "2019-027A", "EPOCH": "2025-12-05T21:13:59.223072", "MEAN_MOTION": 1.00269495, "ECCENTRICITY": 0.00084891, "INCLINATION": 1.6436, "RA_OF_ASC_NODE": 74.7098, "ARG_OF_PERICENTER": 254.8163, "MEAN_ANOMALY": 208.4654, "EPHEMERIS_TYPE": 0, "CLASSIFICATION_TYPE": "U", "NORAD_CAT_ID": 44231, "ELEMENT_SET_NO": 999, "REV_AT_EPOCH": 2414, "BSTAR": 0, "MEAN_MOTION_DOT": -2.39e-06, "MEAN_MOTION_DDOT": 0}, "tle": {"line1": "1 44231U 19027A   25339.88471323 -.00000239  00000+0  00000+0 0  9994", "line2": "2 44231   1.6436  74.7098 0008489 254.8163 208.4654  1.00269495 24145"}}, "geometry": {"type": "Point", "coordinates": [32.20961560013123, -1.0900448149924384]}}, {"type": "Feature", "properties": {"norad_id": 44337, "name": "BEIDOU-3 IGSO-2 (C39)", "group": "beidou", "lat": -21.56588405550573, "lon": -3.4845558265235463, "alt_km": 35631.089299123334, "timestamp": "2025-12-06T11:28:11.328239+00:00", "meta": {"OBJECT_NAME": "BEIDOU-3 IGSO-2 (C39)", "OBJECT_ID": "2019-035A", "EPOCH": "2025-12-01T05:17:49.661952", "MEAN_MOTION": 1.00274502, "ECCENTRICITY": 0.00376064, "INCLINATION": 55.2223, "RA_OF_ASC_NODE": 160.6035, "ARG_OF_PERICENTER": 202.2564, "MEAN_ANOMALY": 266.4761, "EPHEMERIS_TYPE": 0, "CLASSIFICATION_TYPE": "U", "NORAD_CAT_ID": 44337, "ELEMENT_SET_NO": 999, "REV_AT_EPOCH": 2368, "BSTAR": 0, "MEAN_MOTION_DOT": -2.5e-07, "MEAN_MOTION_DDOT": 0}, "tle": {"line1": "1 44337U 19035A   25335.22071368 -.00000025  00000+0  00000+0 0  9992", "line2": "2 44337  55.2223 160.6035 0037606 202.2564 266.4761  1.00274502 23688"}}, "geometry": {"type": "Point", "coordinates": [-3.4845558265235463, -21.56588405550573]}}, {"type": "Feature", "properties": {"norad_id": 44542, "name": "BEIDOU-3 M24 (C46)", "group": "beidou", "lat": 1.2511848012072648, "lon": -169.8671213610651, "alt_km": 21503.6297149636, "timestamp": "2025-12-06T11:28:11.328251+00:00", "meta": {"OBJECT_NAME": "BEIDOU-3 M24 (C46)", "OBJECT_ID": "2019-061A", "EPOCH": "2025-12-04T20:45:16.055424", "MEAN_MOTION": 1.86229249, "ECCENTRICITY": 0.00095755, "INCLINATION": 54.4001, "RA_OF_ASC_NODE": 189.282, "ARG_OF_PERICENTER": 24.0464, "MEAN_ANOMALY": 336.0883, "EPHEMERIS_TYPE": 0, "CLASSIFICATION_TYPE": "U", "NORAD_CAT_ID": 44542, "ELEMENT_SET_NO": 999, "REV_AT_EPOCH": 4217, "BSTAR": 0, "MEAN_MOTION_DOT": 9.8e-07, "MEAN_MOTION_DDOT": 0}, "tle": {"line1": "1 44542U 19061A   25338.86476916  .00000098  00000+0  00000+0 0  9999", "line2": "2 44542  54.4001 189.2820 0009575  24.0464 336.0883  1.86229249 42179"}}, "geometry": {"type": "Point", "coordinates": [-169.8671213610651, 1.2511848012072648]}}]}